[{"OBJECT_NAME":"TEMPSAT 1","OBJECT_ID":"1965-065E","EPOCH":"2026-03-09T23:04:19.834752","MEAN_MOTION":13.33589233,"ECCENTRICITY":0.00702466,"INCLINATION":89.9938,"RA_OF_ASC_NODE":212.5862,"ARG_OF_PERICENTER":165.9273,"MEAN_ANOMALY":317.9391,"EPHEMERIS_TYPE":0,"CLASSIFICATION_TYPE":"U","NORAD_CAT_ID":1512,"ELEMENT_SET_NO":999,"REV_AT_EPOCH":94682,"BSTAR":8.3668831e-5,"MEAN_MOTION_DOT":5.1e-7,"MEAN_MOTION_DDOT":0},{"OBJECT_NAME":"COSMOS 374 DEB","OBJECT_ID":"1970-089AZ","EPOCH":"2026-03-08T12:44:37.675968","MEAN_MOTION":12.61150667,"ECCENTRICITY":0.08905305,"INCLINATION":63.9954,"RA_OF_ASC_NODE":127.2409,"ARG_OF_PERICENTER":203.9184,"MEAN_ANOMALY":151.7912,"EPHEMERIS_TYPE":0,"CLASSIFICATION_TYPE":"U","NORAD_CAT_ID":5188,"ELEMENT_SET_NO":999,"REV_AT_EPOCH":85949,"BSTAR":0.00056761138,"MEAN_MOTION_DOT":4.07e-6,"MEAN_MOTION_DDOT":0}]
